start=new Date('2022-02-28T00:00:00.000Z').valueOf();
sats=[{"OBJECT_ID":"2021-009BH","EPOCH":"2022-02-27T13:19:01.969824","BSTAR":"0.00011210000000","MEAN_MOTION_DDOT":"0.0000000000000","APOAPSIS":"548.311","ARG_OF_PERICENTER":"60.1276","LAUNCH_DATE":"2021-02-04","MEAN_MOTION_DOT":"0.00001388","FILE":"3329903","DECAY_DATE":null,"INCLINATION":"53.0551","PERIAPSIS":"546.134","OBJECT_TYPE":"PAYLOAD","NORAD_CAT_ID":"47603","MEAN_ELEMENT_THEORY":"SGP4","REF_FRAME":"TEME","RA_OF_ASC_NODE":"165.7928","TLE_LINE2":"2 47603  53.0551 165.7928 0001572  60.1276 299.9869 15.06397112 58770","TIME_SYSTEM":"UTC","CLASSIFICATION_TYPE":"U","COUNTRY_CODE":"US","SITE":"AFETR","RCS_SIZE":"LARGE","OBJECT_NAME":"STARLINK-2008","MEAN_MOTION":"15.06397112","EPHEMERIS_TYPE":"0","GP_ID":"197235993","SEMIMAJOR_AXIS":"6925.357","REV_AT_EPOCH":"5877","ELEMENT_SET_NO":"999","PERIOD":"95.592","CENTER_NAME":"EARTH","ECCENTRICITY":"0.00015720","TLE_LINE1":"1 47603U 21009BH  22058.55488391  .00001388  00000-0  11210-3 0  9990","MEAN_ANOMALY":"299.9869"},{"OBJECT_TYPE":"PAYLOAD","PERIAPSIS":"546.118","MEAN_ELEMENT_THEORY":"SGP4","NORAD_CAT_ID":"47604","TLE_LINE2":"2 47604  53.0535 136.1161 0001582  53.2183 306.8951 15.06399935 59197","REF_FRAME":"TEME","RA_OF_ASC_NODE":"136.1161","BSTAR":"0.00011690000000","EPOCH":"2022-02-27T11:36:51.673824","OBJECT_ID":"2021-009BJ","APOAPSIS":"548.309","MEAN_MOTION_DDOT":"0.0000000000000","MEAN_MOTION_DOT":"0.00001460","LAUNCH_DATE":"2021-02-04","ARG_OF_PERICENTER":"53.2183","INCLINATION":"53.0535","DECAY_DATE":null,"FILE":"3329903","REV_AT_EPOCH":"5919","SEMIMAJOR_AXIS":"6925.349","GP_ID":"197234741","ELEMENT_SET_NO":"999","PERIOD":"95.592","MEAN_ANOMALY":"306.8951","TLE_LINE1":"1 47604U 21009BJ  22058.48393141  .00001460  00000-0  11690-3 0  9994","ECCENTRICITY":"0.00015820","CENTER_NAME":"EARTH","TIME_SYSTEM":"UTC","COUNTRY_CODE":"US","CLASSIFICATION_TYPE":"U","OBJECT_NAME":"STARLINK-2021","MEAN_MOTION":"15.06399935","RCS_SIZE":"LARGE","SITE":"AFETR","EPHEMERIS_TYPE":"0"},{"TLE_LINE1":"1 47605U 21009BK  22058.42173972  .00037586  00000-0  39816-3 0  9995","ECCENTRICITY":"0.00017030","CENTER_NAME":"EARTH","MEAN_ANOMALY":"324.8048","PERIOD":"92.085","ELEMENT_SET_NO":"999","REV_AT_EPOCH":"5962","GP_ID":"197234490","SEMIMAJOR_AXIS":"6754.892","EPHEMERIS_TYPE":"0","SITE":"AFETR","MEAN_MOTION":"15.63778184","OBJECT_NAME":"STARLINK-2023","RCS_SIZE":"LARGE","CLASSIFICATION_TYPE":"U","COUNTRY_CODE":"US","TIME_SYSTEM":"UTC","RA_OF_ASC_NODE":"104.4885","REF_FRAME":"TEME","TLE_LINE2":"2 47605  53.0487 104.4885 0001703  35.3078 324.8048 15.63778184 59629","NORAD_CAT_ID":"47605","MEAN_ELEMENT_THEORY":"SGP4","PERIAPSIS":"375.607","OBJECT_TYPE":"PAYLOAD","FILE":"3329903","INCLINATION":"53.0487","DECAY_DATE":null,"MEAN_MOTION_DOT":"0.00037586","LAUNCH_DATE":"2021-02-04","ARG_OF_PERICENTER":"35.3078","MEAN_MOTION_DDOT":"0.0000000000000","APOAPSIS":"377.907","OBJECT_ID":"2021-009BK","EPOCH":"2022-02-27T10:07:18.311808","BSTAR":"0.00039816000000"},{"INCLINATION":"53.0561","DECAY_DATE":null,"FILE":"3331200","MEAN_MOTION_DOT":"0.00005127","ARG_OF_PERICENTER":"59.2784","LAUNCH_DATE":"2021-02-04","APOAPSIS":"548.191","MEAN_MOTION_DDOT":"0.0000000000000","BSTAR":"0.00036273000000","EPOCH":"2022-02-27T16:28:47.102592","OBJECT_ID":"2021-009BL","TLE_LINE2":"2 47606  53.0561 135.2120 0001461  59.2784 300.8349 15.06411144 59228","REF_FRAME":"TEME","RA_OF_ASC_NODE":"135.2120","MEAN_ELEMENT_THEORY":"SGP4","NORAD_CAT_ID":"47606","OBJECT_TYPE":"PAYLOAD","PERIAPSIS":"546.168","EPHEMERIS_TYPE":"0","MEAN_MOTION":"15.06411144","OBJECT_NAME":"STARLINK-2024","RCS_SIZE":"LARGE","SITE":"AFETR","COUNTRY_CODE":"US","CLASSIFICATION_TYPE":"U","TIME_SYSTEM":"UTC","MEAN_ANOMALY":"300.8349","TLE_LINE1":"1 47606U 21009BL  22058.68665628  .00005127  00000-0  36273-3 0  9998","ECCENTRICITY":"0.00014610","CENTER_NAME":"EARTH","PERIOD":"95.591","ELEMENT_SET_NO":"999","REV_AT_EPOCH":"5922","SEMIMAJOR_AXIS":"6925.314","GP_ID":"197285468"},{"ARG_OF_PERICENTER":"52.8444","LAUNCH_DATE":"2021-02-04","MEAN_MOTION_DOT":"-0.00000489","DECAY_DATE":null,"INCLINATION":"53.0551","FILE":"3329903","BSTAR":"-0.00001390500000","EPOCH":"2022-02-27T12:45:51.961824","OBJECT_ID":"2021-009BM","APOAPSIS":"548.290","MEAN_MOTION_DDOT":"0.0000000000000","MEAN_ELEMENT_THEORY":"SGP4","NORAD_CAT_ID":"47607","TLE_LINE2":"2 47607  53.0551 135.8975 0001524  52.8444 307.2684 15.06393014 59198","RA_OF_ASC_NODE":"135.8975","REF_FRAME":"TEME","OBJECT_TYPE":"PAYLOAD","PERIAPSIS":"546.180","RCS_SIZE":"LARGE","OBJECT_NAME":"STARLINK-2025","MEAN_MOTION":"15.06393014","SITE":"AFETR","EPHEMERIS_TYPE":"0","TIME_SYSTEM":"UTC","COUNTRY_CODE":"US","CLASSIFICATION_TYPE":"U","PERIOD":"95.593","MEAN_ANOMALY":"307.2684","ECCENTRICITY":"0.00015240","CENTER_NAME":"EARTH","TLE_LINE1":"1 47607U 21009BM  22058.53185141 -.00000489  00000-0 -13905-4 0  9996","SEMIMAJOR_AXIS":"6925.370","GP_ID":"197235494","REV_AT_EPOCH":"5919","ELEMENT_SET_NO":"999"},{"REV_AT_EPOCH":"5828","SEMIMAJOR_AXIS":"6925.355","GP_ID":"197285469","ELEMENT_SET_NO":"999","PERIOD":"95.592","TLE_LINE1":"1 47620U 21012A   22058.81382199  .00000994  00000-0  85610-4 0  9999","CENTER_NAME":"EARTH","ECCENTRICITY":"0.00014620","MEAN_ANOMALY":"291.3267","TIME_SYSTEM":"UTC","CLASSIFICATION_TYPE":"U","COUNTRY_CODE":"US","SITE":"AFETR","OBJECT_NAME":"STARLINK-1528","MEAN_MOTION":"15.06398025","RCS_SIZE":"LARGE","EPHEMERIS_TYPE":"0","PERIAPSIS":"546.207","OBJECT_TYPE":"PAYLOAD","NORAD_CAT_ID":"47620","MEAN_ELEMENT_THEORY":"SGP4","REF_FRAME":"TEME","RA_OF_ASC_NODE":"194.6360","TLE_LINE2":"2 47620  53.0539 194.6360 0001462  68.7878 291.3267 15.06398025 58284","EPOCH":"2022-02-27T19:31:54.219936","OBJECT_ID":"2021-012A","BSTAR":"0.00008561000000","MEAN_MOTION_DDOT":"0.0000000000000","APOAPSIS":"548.232","MEAN_MOTION_DOT":"0.00000994","LAUNCH_DATE":"2021-02-16","ARG_OF_PERICENTER":"68.7878","FILE":"3331200","INCLINATION":"53.0539","DECAY_DATE":null},{"MEAN_ANOMALY":"298.9292","TLE_LINE1":"1 47621U 21012B   22058.74010676 -.00001059  00000-0 -52241-4 0  9999","ECCENTRICITY":"0.00014770","CENTER_NAME":"EARTH","PERIOD":"95.593","ELEMENT_SET_NO":"999","REV_AT_EPOCH":"5828","GP_ID":"197285719","SEMIMAJOR_AXIS":"6925.370","EPHEMERIS_TYPE":"0","MEAN_MOTION":"15.06393026","OBJECT_NAME":"STARLINK-1609","RCS_SIZE":"LARGE","SITE":"AFETR","COUNTRY_CODE":"US","CLASSIFICATION_TYPE":"U","TIME_SYSTEM":"UTC","TLE_LINE2":"2 47621  53.0552 194.9739 0001477  61.1845 298.9292 15.06393026 58287","RA_OF_ASC_NODE":"194.9739","REF_FRAME":"TEME","MEAN_ELEMENT_THEORY":"SGP4","NORAD_CAT_ID":"47621","OBJECT_TYPE":"PAYLOAD","PERIAPSIS":"546.212","INCLINATION":"53.0552","DECAY_DATE":null,"FILE":"3331200","MEAN_MOTION_DOT":"-0.00001059","ARG_OF_PERICENTER":"61.1845","LAUNCH_DATE":"2021-02-16","APOAPSIS":"548.258","MEAN_MOTION_DDOT":"0.0000000000000","BSTAR":"-0.00005224100000","OBJECT_ID":"2021-012B","EPOCH":"2022-02-27T17:45:45.224064"},{"TLE_LINE2":"2 47622  53.0552 194.6803 0001645  67.6904 292.4259 15.06401897 58289","REF_FRAME":"TEME","RA_OF_ASC_NODE":"194.6803","MEAN_ELEMENT_THEORY":"SGP4","NORAD_CAT_ID":"47622","OBJECT_TYPE":"PAYLOAD","PERIAPSIS":"546.069","DECAY_DATE":null,"INCLINATION":"53.0552","FILE":"3331200","ARG_OF_PERICENTER":"67.6904","LAUNCH_DATE":"2021-02-16","MEAN_MOTION_DOT":"-0.00001750","APOAPSIS":"548.347","MEAN_MOTION_DDOT":"0.0000000000000","BSTAR":"-0.00009859700000","OBJECT_ID":"2021-012C","EPOCH":"2022-02-27T19:15:58.658400","MEAN_ANOMALY":"292.4259","ECCENTRICITY":"0.00016450","CENTER_NAME":"EARTH","TLE_LINE1":"1 47622U 21012C   22058.80276225 -.00001750  00000-0 -98597-4 0  9993","PERIOD":"95.592","ELEMENT_SET_NO":"999","GP_ID":"197285970","SEMIMAJOR_AXIS":"6925.343","REV_AT_EPOCH":"5828","EPHEMERIS_TYPE":"0","RCS_SIZE":"LARGE","MEAN_MOTION":"15.06401897","OBJECT_NAME":"STARLINK-1645","SITE":"AFETR","COUNTRY_CODE":"US","CLASSIFICATION_TYPE":"U","TIME_SYSTEM":"UTC"},{"MEAN_ELEMENT_THEORY":"SGP4","NORAD_CAT_ID":"47623","TLE_LINE2":"2 47623  53.0546 129.3373 0001783  56.8091 303.3069 15.06400784 59219","RA_OF_ASC_NODE":"129.3373","REF_FRAME":"TEME","OBJECT_TYPE":"PAYLOAD","PERIAPSIS":"545.976","MEAN_MOTION_DOT":"0.00000150","LAUNCH_DATE":"2021-02-16","ARG_OF_PERICENTER":"56.8091","INCLINATION":"53.0546","DECAY_DATE":null,"FILE":"3331200","BSTAR":"0.00002898100000","OBJECT_ID":"2021-012D","EPOCH":"2022-02-27T21:08:06.313632","APOAPSIS":"548.446","MEAN_MOTION_DDOT":"0.0000000000000","PERIOD":"95.592","MEAN_ANOMALY":"303.3069","TLE_LINE1":"1 47623U 21012D   22058.88062863  .00000150  00000-0  28981-4 0  9994","ECCENTRICITY":"0.00017830","CENTER_NAME":"EARTH","REV_AT_EPOCH":"5921","GP_ID":"197286721","SEMIMAJOR_AXIS":"6925.346","ELEMENT_SET_NO":"999","OBJECT_NAME":"STARLINK-1655","MEAN_MOTION":"15.06400784","RCS_SIZE":"LARGE","SITE":"AFETR","EPHEMERIS_TYPE":"0","TIME_SYSTEM":"UTC","COUNTRY_CODE":"US","CLASSIFICATION_TYPE":"U"},{"MEAN_ELEMENT_THEORY":"SGP4","NORAD_CAT_ID":"47624","TLE_LINE2":"2 47624  53.0556 175.5585 0001488  70.4487 289.6663 15.06408746 58550","REF_FRAME":"TEME","RA_OF_ASC_NODE":"175.5585","OBJECT_TYPE":"PAYLOAD","PERIAPSIS":"546.156","MEAN_MOTION_DOT":"-0.00002628","LAUNCH_DATE":"2021-02-16","ARG_OF_PERICENTER":"70.4487","INCLINATION":"53.0556","DECAY_DATE":null,"FILE":"3331200","BSTAR":"-0.00015757000000","OBJECT_ID":"2021-012E","EPOCH":"2022-02-27T14:37:18.922656","APOAPSIS":"548.217","MEAN_MOTION_DDOT":"0.0000000000000","PERIOD":"95.592","MEAN_ANOMALY":"289.6663","TLE_LINE1":"1 47624U 21012E   22058.60924679 -.00002628  00000-0 -15757-3 0  9997","CENTER_NAME":"EARTH","ECCENTRICITY":"0.00014880","REV_AT_EPOCH":"5855","SEMIMAJOR_AXIS":"6925.322","GP_ID":"197284969","ELEMENT_SET_NO":"999","MEAN_MOTION":"15.06408746","OBJECT_NAME":"STARLINK-1669","RCS_SIZE":"LARGE","SITE":"AFETR","EPHEMERIS_TYPE":"0","TIME_SYSTEM":"UTC","COUNTRY_CODE":"US","CLASSIFICATION_TYPE":"U"}];
